{
    "links": {
        "self": "http://www.neowsapp.com/rest/v1/neo/3274303?api_key=iIulBulltgU6a56xZRHN4H3l9WmuAYTsLGpBGhQ2"
    },
    "id": "3274303",
    "neo_reference_id": "3274303",
    "name": "(2005 EX169)",
    "designation": "2005 EX169",
    "nasa_jpl_url": "http://ssd.jpl.nasa.gov/sbdb.cgi?sstr=3274303",
    "absolute_magnitude_h": 23.8,
    "estimated_diameter": {
        "kilometers": {
            "estimated_diameter_min": 0.046190746,
            "estimated_diameter_max": 0.1032856481
        },
        "meters": {
            "estimated_diameter_min": 46.1907460282,
            "estimated_diameter_max": 103.2856480504
        },
        "miles": {
            "estimated_diameter_min": 0.0287015901,
            "estimated_diameter_max": 0.0641787064
        },
        "feet": {
            "estimated_diameter_min": 151.544447199,
            "estimated_diameter_max": 338.8636855496
        }
    },
    "is_potentially_hazardous_asteroid": false,
    "close_approach_data": [
        {
            "close_approach_date": "2005-03-14",
            "close_approach_date_full": "2005-Mar-14 20:44",
            "epoch_date_close_approach": 1110833040000,
            "relative_velocity": {
                "kilometers_per_second": "7.7684907534",
                "kilometers_per_hour": "27966.5667121847",
                "miles_per_hour": "17377.3369662461"
            },
            "miss_distance": {
                "astronomical": "0.1045336729",
                "lunar": "40.6635987581",
                "kilometers": "15638014.809116723",
                "miles": "9717011.8185598574"
            },
            "orbiting_body": "Earth"
        }
    ],
    "orbital_data": {
        "orbit_id": "8",
        "orbit_determination_date": "2017-04-06 09:11:15",
        "first_observation_date": "2005-03-13",
        "last_observation_date": "2005-03-20",
        "data_arc_in_days": 7,
        "observations_used": 20,
        "orbit_uncertainty": "8",
        "minimum_orbit_intersection": ".104504",
        "jupiter_tisserand_invariant": "5.151",
        "epoch_osculation": "2453443.5",
        "eccentricity": ".1104533770768618",
        "semi_major_axis": "1.234212397139884",
        "inclination": "14.90597896072836",
        "ascending_node_longitude": "174.1360900735645",
        "orbital_period": "500.8218676846791",
        "perihelion_distance": "1.097889469845655",
        "perihelion_argument": "352.1329479625755",
        "aphelion_distance": "1.370535324434113",
        "perihelion_time": "2453435.411734530150",
        "mean_anomaly": "5.813994469944499",
        "mean_motion": ".718818452685174",
        "equinox": "J2000",
        "orbit_class": {
            "orbit_class_type": "AMO",
            "orbit_class_description": "Near-Earth asteroid orbits similar to that of 1221 Amor",
            "orbit_class_range": "1.017 AU < q (perihelion) < 1.3 AU"
        }
    },
    "is_sentry_object": false
}